CONNECTA IOT 1          
1 60472U 24149E   24243.74684804  .00013130  00000+0  66062-3 0  9995
2 60472  97.4432 319.0887 0003585  67.8026 292.3587 15.17341010  2119
2024-149F               
1 60473U 24149F   24243.74644774  .00017420  00000+0  87221-3 0  9994
2 60473  97.4449 319.0915 0003248  75.8334 284.3260 15.17449480  2116
2024-149G               
1 60474U 24149G   24243.74634590  .00017260  00000+0  86406-3 0  9996
2 60474  97.4448 319.0915 0003286  76.2109 283.9490 15.17458013  2115
CONNECTA IOT 3          
1 60475U 24149H   24243.74620323  .00008244  00000+0  41563-3 0  9993
2 60475  97.4383 319.0811 0005236  58.9090 301.2657 15.17391935  2110
QUBE                    
1 60476U 24149J   24243.74533765  .00019672  00000+0  97952-3 0  9997
2 60476  97.4451 319.0944 0004185  64.3041 295.8625 15.17615213  2114
SATORO-T2               
1 60477U 24149K   24247.17181810  .00034352  00000+0  16808-2 0  9991
2 60477  97.4405 322.4600 0003168  54.1941 305.9587 15.18109810  2636
WREN-1                  
1 60478U 24149L   24243.67879112  .00021037  00000+0  10442-2 0  9996
2 60478  97.4426 319.0264 0008203  72.4049 287.8080 15.17689004  2100
2024-149M               
1 60479U 24149M   24243.74509243  .00012227  00000+0  61194-3 0  9992
2 60479  97.4399 319.0862 0004501  72.8200 287.3526 15.17539822  2117
FLOCK 4BE-18            
1 60480U 24149N   24243.74472135  .00015752  00000+0  78490-3 0  9996
2 60480  97.4415 319.0877 0006877  66.2149 293.9805 15.17624214  2114
FLOCK 4BE-7             
1 60481U 24149P   24243.74440063  .00015320  00000+0  76228-3 0  9990
2 60481  97.4445 319.0957 0005669  66.1690 294.0138 15.17687314  2116
FLOCK 4BE-4             
1 60482U 24149Q   24243.74391431  .00014273  00000+0  70950-3 0  9997
2 60482  97.4443 319.0952 0005117  68.7436 291.4344 15.17740967  2118
FLOCK 4BE-16            
1 60483U 24149R   24243.74431134  .00016908  00000+0  84105-3 0  9997
2 60483  97.4429 319.0919 0005240  66.5342 293.6442 15.17677809  2112
FLOCK 4BE-26            
1 60484U 24149S   24243.74369189  .00014368  00000+0  71196-3 0  9992
2 60484  97.4396 319.0856 0006195  67.2063 292.9825 15.17844178  2116
2024-149T               
1 60485U 24149T   24243.74421164  .00012855  00000+0  64120-3 0  9993
2 60485  97.4460 319.0979 0004765  75.1123 285.0638 15.17645316  2119
FLOCK 4BE-36            
1 60486U 24149U   24243.74360416  .00016073  00000+0  79757-3 0  9994
2 60486  97.4407 319.0863 0007442  72.2244 287.9801 15.17761927  2110
FLOCK 4BE-25            
1 60487U 24149V   24243.74272936  .00016090  00000+0  79495-3 0  9992
2 60487  97.4458 319.1003 0004971  70.3261 289.8509 15.17926761  2111
FLOCK 4BE-31            
1 60488U 24149W   24243.74293784  .00018059  00000+0  89331-3 0  9994
2 60488  97.4458 319.1008 0005616  71.7492 288.4353 15.17858054  2116
FLOCK 4BE-20            
1 60489U 24149X   24243.74216441  .00014051  00000+0  69321-3 0  9995
2 60489  97.4387 319.0853 0006537  72.3068 287.8879 15.18001698  2115
FLOCK 4BE-23            
1 60490U 24149Y   24243.74279278  .00015508  00000+0  76847-3 0  9993
2 60490  97.4450 319.1007 0006179  72.5849 287.6059 15.17825655  2115
FLOCK 4BE-15            
1 60491U 24149Z   24243.74255990  .00015915  00000+0  78784-3 0  9993
2 60491  97.4383 319.0846 0006552  74.0814 286.1142 15.17852847  2115
FLOCK 4BE-17            
1 60492U 24149AA  24243.74238213  .00014714  00000+0  72841-3 0  9997
2 60492  97.4462 319.1031 0005560  76.1810 284.0043 15.17874618  2115
2024-149AB              
1 60493U 24149AB  24243.80807276  .00016336  00000+0  80721-3 0  9994
2 60493  97.4442 319.1647 0006388  76.3087 283.8858 15.17913122  2120
FLOCK 4BE-22            
1 60494U 24149AC  24243.74201485  .00015941  00000+0  78709-3 0  9992
2 60494  97.4401 319.0860 0007512  80.1101 280.0981 15.17938253  2119
FLOCK 4BE-34            
1 60495U 24149AD  24243.74133612  .00014555  00000+0  71797-3 0  9999
2 60495  97.4448 319.1033 0005982  76.5674 283.6226 15.18000969  2113
TYCHE                   
1 60496U 24149AE  24246.90608125  .00012119  00000+0  59953-3 0  9991
2 60496  97.4428 322.2094 0006432  73.5416 286.6524 15.17939908  2595
FLOCK 4BE-32            
1 60497U 24149AF  24246.90380568  .00017943  00000+0  87641-3 0  9995
2 60497  97.4381 322.1972 0006655  69.4961 290.6986 15.18295497  2590
2024-149AG              
1 60498U 24149AG  24246.90516700  .00019158  00000+0  93974-3 0  9991
2 60498  97.4405 322.2006 0007100  74.6697 285.5321 15.18130015  2597
FLOCK 4BE-30            
1 60499U 24149AH  24246.90443807  .00017423  00000+0  85360-3 0  9992
2 60499  97.4456 322.2197 0005339  71.8830 288.2985 15.18202666  1974
2024-149AJ              
1 60500U 24149AJ  24246.90472676  .00018770  00000+0  92016-3 0  9993
2 60500  97.4431 322.2141 0005946  71.8312 288.3569 15.18162022  2597
FLOCK 4BE-11            
1 60501U 24149AK  24246.90414604  .00017377  00000+0  84972-3 0  9995
2 60501  97.4386 322.1968 0007079  76.0692 284.1329 15.18260970  2599
FLOCK 4BE-33            
1 60502U 24149AL  24246.90278871  .00016965  00000+0  82835-3 0  9998
2 60502  97.4401 322.2010 0006992  80.7708 279.4317 15.18316788  2593
FLOCK 4BE-10            
1 60503U 24149AM  24247.16661711  .00016026  00000+0  78356-3 0  9998
2 60503  97.4451 322.4807 0005252  78.5437 281.6386 15.18292336  2635
2024-149AN              
1 60504U 24149AN  24246.90294821  .00015163  00000+0  74227-3 0  9998
2 60504  97.4434 322.2156 0005786  81.7582 278.4308 15.18259314  2593
FLOCK 4BE-24            
1 60505U 24149AP  24246.90098536  .00019602  00000+0  95079-3 0  9994
2 60505  97.4384 322.2007 0007027  82.1650 278.0382 15.18516683  2597
2024-149AQ              
1 60506U 24149AQ  24246.90223560  .00014004  00000+0  68484-3 0  9993
2 60506  97.4418 322.2088 0006442  86.7209 273.4762 15.18309552  2591
TANAGER-1               
1 60507U 24149AR  24246.90185397  .00021262  00000+0  10347-2 0  9997
2 60507  97.4419 322.2098 0006223  86.8278 273.3668 15.18389960  2593
EAGLEEYE                
1 60508U 24149AS  24246.90030302  .00028008  00000+0  13500-2 0  9992
2 60508  97.4404 322.2069 0006485  85.8908 274.3068 15.18663728  2597
FLOCK 4BE-29            
1 60509U 24149AT  24246.90055260  .00019900  00000+0  96317-3 0  9992
2 60509  97.4457 322.2250 0005397  87.6224 272.5628 15.18597981  2599
2024-149AU              
1 60510U 24149AU  24246.90050167  .00019500  00000+0  94531-3 0  9997
2 60510  97.4397 322.2040 0006913  89.2428 270.9598 15.18539322  2593
FLOCK 4BE-2             
1 60511U 24149AV  24245.91053002  .00023213  00000+0  11157-2 0  9997
2 60511  97.4463 321.2534 0005597  94.5030 265.6844 15.18807004  2444
FLOCK 4BE-13            
1 60512U 24149AW  24246.89963322  .00017838  00000+0  86332-3 0  9995
2 60512  97.4377 322.2032 0007469  83.1049 277.1035 15.18610831  2593
FLOCK 4BE-27            
1 60513U 24149AX  24246.89847163  .00014953  00000+0  72326-3 0  9993
2 60513  97.4459 322.2253 0006859  95.4207 264.7809 15.18674258  2598
FLOCK 4BE-9             
1 60514U 24149AY  24246.89801136  .00018351  00000+0  88441-3 0  9995
2 60514  97.4442 322.2238 0005697  97.2791 262.9091 15.18762069  2592
FLOCK 4BE-8             
1 60515U 24149AZ  24247.16160283  .00015489  00000+0  74685-3 0  9992
2 60515  97.4390 322.4666 0007355  90.9106 269.2971 15.18771836  2639
FLOCK 4BE-6             
1 60516U 24149BA  24246.89732075  .00016716  00000+0  80499-3 0  9990
2 60516  97.4447 322.2251 0006231  98.4667 261.7274 15.18805684  2595
FLOCK 4BE-14            
1 60517U 24149BB  24247.15925807  .00015760  00000+0  75274-3 0  9991
2 60517  97.4396 322.4725 0007807  90.5538 269.6591 15.19095181  2635
FLOCK 4BE-1             
1 60518U 24149BC  24246.89623126  .00019339  00000+0  92587-3 0  9993
2 60518  97.4441 322.2240 0007037  97.3409 262.8626 15.18974787  2590
FLOCK 4BE-28            
1 60519U 24149BD  24246.89686059  .00019436  00000+0  93213-3 0  9993
2 60519  97.4407 322.2146 0008147  91.9057 268.3110 15.18904736  2596
IPERDRONE.0             
1 60520U 24149BE  24246.89508433  .00028124  00000+0  13363-2 0  9995
2 60520  97.4415 322.2187 0008239  89.5098 270.7081 15.19149976  2594
2024-149BF              
1 60521U 24149BF  24246.89411893  .00033803  00000+0  15972-2 0  9997
2 60521  97.4436 322.2245 0008068  92.1379 268.0779 15.19304270  2599
CONNECTA IOT 2          
1 60522U 24149BG  24246.82870602  .00018690  00000+0  89383-3 0  9993
2 60522  97.4455 322.1628 0008951  94.9451 265.2805 15.19005429  2589
2024-149BH              
1 60523U 24149BH  24246.89225917  .00033526  00000+0  15761-2 0  9997
2 60523  97.4388 322.2164 0008913  89.1293 271.0962 15.19475359  2592
CONNECTA IOT 4          
1 60524U 24149BJ  24246.89403396  .00012787  00000+0  61251-3 0  9999
2 60524  97.4417 322.2204 0009674  91.0752 269.1591 15.19029112  2596
2024-149BK              
1 60525U 24149BK  24246.89237762  .00021871  00000+0  10356-2 0  9995
2 60525  97.4375 322.2142 0010110  85.8990 274.3400 15.19307334  2595
2024-149BL              
1 60526U 24149BL  24246.89185528  .00021210  00000+0  10034-2 0  9998
2 60526  97.4437 322.2273 0010088  91.1638 269.0753 15.19345042  2593
2024-149BM              
1 60527U 24149BM  24246.89169552  .00020918  00000+0  98923-3 0  9996
2 60527  97.4385 322.2175 0010419  85.1281 275.1143 15.19357728  2597
ERNST                   
1 60528U 24149BN  24246.89267161  .00012912  00000+0  61610-3 0  9990
2 60528  97.4445 322.2278 0010495  92.2987 267.9449 15.19153080  2598
GAINDESAT-1A            
1 60529U 24149BP  24246.88897264  .00035405  00000+0  16476-2 0  9994
2 60529  97.4459 322.2346 0009958  89.7190 270.5186 15.19806223  2591
TORO                    
1 60530U 24149BQ  24247.20888951  .00006779  00000+0  68552-3 0  9991
2 60530  97.7469 322.3851 0001335  90.1699 269.9673 14.91315204  2585
